NORAD_CAT_ID,OBJECT_NAME,OBJECT_TYPE,EPOCH,MEAN_MOTION,ECCENTRICITY,INCLINATION,RA_OF_ASC_NODE,ARG_OF_PERICENTER,MEAN_ANOMALY,BSTAR,MEAN_MOTION_DOT,MEAN_MOTION_DDOT,TLE_LINE0,TLE_LINE1,TLE_LINE2,SEMIMAJOR_AXIS,PERIOD,APOGEE,PERIGEE,DECAYED
51757.0,STARLINK-3459,PAYLOAD,2023-04-23 15:07:25,15.08841228,0.0001486,53.2179,347.5239,65.0111,295.1035,7.5166e-05,9.09e-06,0.0,0 STARLINK-3459,1 51757U 22016AV  23113.63015049  .00000909  00000-0  75166-4 0  9991,2 51757  53.2179 347.5239 0001486  65.0111 295.1035 15.08841228 66141,6917.877,95.437,540.77,538.714,0.0
51757.0,STARLINK-3459,PAYLOAD,2023-04-24 14:58:10,15.0886543,0.0001148,53.217,343.0582,87.7732,272.3391,0.00043099,6.583e-05,0.0,0 STARLINK-3459,1 51757U 22016AV  23114.62373439  .00006583  00000-0  43099-3 0  9994,2 51757  53.2170 343.0582 0001148  87.7732 272.3391 15.08865430 65185,6917.803,95.436,540.462,538.873,0.0
51757.0,STARLINK-3459,PAYLOAD,2023-04-24 22:55:05,15.08873422,9.73e-05,53.2173,341.5715,92.9581,267.1522,0.00054006,8.325e-05,0.0,0 STARLINK-3459,1 51757U 22016AV  23114.95492601  .00008325  00000-0  54006-3 0  9999,2 51757  53.2173 341.5715 0000973  92.9581 267.1522 15.08873422 65238,6917.778,95.435,540.316,538.97,0.0
51757.0,STARLINK-3459,PAYLOAD,2023-04-26 01:56:42,15.08790321,0.0001143,53.2177,336.5158,130.0042,230.1051,-0.00075598,-0.00012282,0.0,0 STARLINK-3459,1 51757U 22016AV  23116.08104913 -.00012282  00000-0 -75598-3 0  9999,2 51757  53.2177 336.5158 0001143 130.0042 230.1051 15.08790321 66518,6918.032,95.441,540.688,539.107,0.0
51757.0,STARLINK-3459,PAYLOAD,2023-04-26 14:39:47,15.08822723,8.95e-05,53.2171,334.1419,56.3402,303.7675,0.00023095,3.388e-05,0.0,0 STARLINK-3459,1 51757U 22016AV  23116.61096294  .00003388  00000-0  23095-3 0  9990,2 51757  53.2171 334.1419 0000895  56.3402 303.7675 15.08822723 65485,6917.933,95.439,540.417,539.179,0.0
51757.0,STARLINK-3459,PAYLOAD,2023-04-27 20:52:06,15.08846148,9.98e-05,53.2178,328.4898,124.7657,235.343,0.00083732,0.00013065,0.0,0 STARLINK-3459,1 51757U 22016AV  23117.86952345  .00013065  00000-0  83732-3 0  9993,2 51757  53.2178 328.4898 0000998 124.7657 235.3430 15.08846148 66785,6917.862,95.437,540.417,539.036,0.0
51757.0,STARLINK-3459,PAYLOAD,2023-04-28 01:38:15,15.0886811,7.47e-05,53.2168,327.5967,132.3407,227.7648,0.00079696,0.00012428,0.0,0 STARLINK-3459,1 51757U 22016AV  23118.06823390  .00012428  00000-0  79696-3 0  9999,2 51757  53.2168 327.5967 0000747 132.3407 227.7648 15.08868110 66814,6917.794,95.436,540.176,539.143,0.0
51757.0,STARLINK-3459,PAYLOAD,2023-04-28 12:45:57,15.08837586,6.7e-05,53.217,325.5155,138.936,221.1682,-0.00032906,-5.52e-05,0.0,0 STARLINK-3459,1 51757U 22016AV  23118.53191077 -.00005520  00000-0 -32906-3 0  9991,2 51757  53.2170 325.5155 0000670 138.9360 221.1682 15.08837586 66885,6917.888,95.438,540.216,539.289,0.0
51757.0,STARLINK-3459,PAYLOAD,2023-04-29 01:29:02,15.0885232,5.37e-05,53.2169,323.1364,116.7153,243.3894,0.0002077,3.021e-05,0.0,0 STARLINK-3459,1 51757U 22016AV  23119.06183226  .00003021  00000-0  20770-3 0  9995,2 51757  53.2169 323.1364 0000537 116.7153 243.3894 15.08852320 66968,6917.843,95.437,540.079,539.336,0.0
51757.0,STARLINK-3459,PAYLOAD,2023-04-29 12:36:44,15.08840517,5.6e-05,53.2168,321.055,115.0999,245.0051,0.00010396,1.367e-05,0.0,0 STARLINK-3459,1 51757U 22016AV  23119.52551568  .00001367  00000-0  10396-3 0  9998,2 51757  53.2168 321.0550 0000560 115.0999 245.0051 15.08840517 65921,6917.879,95.438,540.131,539.356,0.0
51757.0,STARLINK-3459,PAYLOAD,2023-04-29 18:58:17,15.08845693,5.2e-05,53.2167,319.8656,107.2073,252.8976,0.00037188,5.637e-05,0.0,0 STARLINK-3459,1 51757U 22016AV  23119.79047501  .00005637  00000-0  37188-3 0  9996,2 51757  53.2167 319.8656 0000520 107.2073 252.8976 15.08845693 67074,6917.863,95.437,540.088,539.368,0.0
51757.0,STARLINK-3459,PAYLOAD,2023-04-29 23:44:26,15.08851754,5.52e-05,53.2165,318.9737,110.1979,249.9073,0.00053358,8.217e-05,0.0,0 STARLINK-3459,1 51757U 22016AV  23119.98919311  .00008217  00000-0  53358-3 0  9998,2 51757  53.2165 318.9737 0000552 110.1979 249.9073 15.08851754 65994,6917.844,95.437,540.091,539.328,0.0
51757.0,STARLINK-3459,PAYLOAD,2023-04-30 20:24:27,15.08838868,5.09e-05,53.2164,315.1077,96.662,263.443,9.9071e-05,1.289e-05,0.0,0 STARLINK-3459,1 51757U 22016AV  23120.85031735  .00001289  00000-0  99071-4 0  9996,2 51757  53.2164 315.1077 0000509  96.6620 263.4430 15.08838868 67230,6917.884,95.438,540.101,539.397,0.0
51757.0,STARLINK-3459,PAYLOAD,2023-05-01 12:18:18,15.08836493,5.52e-05,53.2161,312.1334,90.9948,269.1107,1.1187e-05,-1.1e-06,0.0,0 STARLINK-3459,1 51757U 22016AV  23121.51271877 -.00000110  00000-0  11187-4 0  9998,2 51757  53.2161 312.1334 0000552  90.9948 269.1107 15.08836493 66222,6917.891,95.438,540.138,539.374,0.0
51757.0,STARLINK-3459,PAYLOAD,2023-05-01 20:15:14,15.08841755,5.73e-05,53.2164,310.6466,91.5253,268.5804,0.00012084,1.636e-05,0.0,0 STARLINK-3459,1 51757U 22016AV  23121.84391779  .00001636  00000-0  12084-3 0  9997,2 51757  53.2164 310.6466 0000573  91.5253 268.5804 15.08841755 66272,6917.875,95.437,540.136,539.344,0.0
51757.0,STARLINK-3459,PAYLOAD,2023-05-01 23:26:00,15.08847141,5.96e-05,53.2164,310.052,86.1097,273.9963,0.00017129,2.44e-05,0.0,0 STARLINK-3459,1 51757U 22016AV  23121.97639538  .00002440  00000-0  17129-3 0  9998,2 51757  53.2164 310.0520 0000596  86.1097 273.9963 15.08847141 67405,6917.859,95.437,540.136,539.311,0.0
51757.0,STARLINK-3459,PAYLOAD,2023-05-02 18:30:38,15.08845626,7.27e-05,53.2171,306.4846,67.5045,292.6024,0.0001657,2.351e-05,0.0,0 STARLINK-3459,1 51757U 22016AV  23122.77127691  .00002351  00000-0  16570-3 0  9999,2 51757  53.2171 306.4846 0000727  67.5045 292.6024 15.08845626 67520,6917.863,95.437,540.231,539.225,0.0
51757.0,STARLINK-3459,PAYLOAD,2023-05-03 11:59:52,15.08839982,8.55e-05,53.216,303.2081,128.7404,231.3665,0.00012999,1.782e-05,0.0,0 STARLINK-3459,1 51757U 22016AV  23123.49991653  .00001782  00000-0  12999-3 0  9994,2 51757  53.2160 303.2081 0000855 128.7404 231.3665 15.08839982 67636,6917.88,95.438,540.337,539.154,0.0
51757.0,STARLINK-3459,PAYLOAD,2023-05-03 21:32:11,15.08844262,6.62e-05,53.2166,301.4273,104.5068,255.5998,7.6324e-05,9.27e-06,0.0,0 STARLINK-3459,1 51757U 22016AV  23123.89735559  .00000927  00000-0  76324-4 0  9992,2 51757  53.2166 301.4273 0000662 104.5068 255.5998 15.08844262 66586,6917.867,95.437,540.19,539.274,0.0
51757.0,STARLINK-3459,PAYLOAD,2023-05-04 11:50:39,15.08840277,7.65e-05,53.2158,298.7539,79.6956,280.4122,8.1291e-05,1.006e-05,0.0,0 STARLINK-3459,1 51757U 22016AV  23124.49351832  .00001006  00000-0  81291-4 0  9995,2 51757  53.2158 298.7539 0000765  79.6956 280.4122 15.08840277 66670,6917.88,95.438,540.274,539.215,0.0
51757.0,STARLINK-3459,PAYLOAD,2023-05-04 13:26:02,15.08842879,7.03e-05,53.2157,298.4569,89.8676,270.2396,4.0368e-07,-2.81e-06,0.0,0 STARLINK-3459,1 51757U 22016AV  23124.55975666 -.00000281  00000-0  40368-6 0  9996,2 51757  53.2157 298.4569 0000703  89.8676 270.2396 15.08842879 67797,6917.872,95.437,540.223,539.25,0.0
51757.0,STARLINK-3459,PAYLOAD,2023-05-04 18:12:12,15.08844881,5.78e-05,53.2169,297.5646,91.2698,268.836,1.5796e-05,-3.6e-07,0.0,0 STARLINK-3459,1 51757U 22016AV  23124.75847572 -.00000036  00000-0  15796-4 0  9995,2 51757  53.2169 297.5646 0000578  91.2698 268.8360 15.08844881 66717,6917.865,95.437,540.13,539.331,0.0
51757.0,STARLINK-3459,PAYLOAD,2023-05-05 14:52:13,15.08833265,7.7e-05,53.2188,293.6998,90.6568,269.4512,1.9169e-05,1.7e-07,0.0,0 STARLINK-3459,1 51757U 22016AV  23125.61960299  .00000017  00000-0  19169-4 0  9999,2 51757  53.2188 293.6998 0000770  90.6568 269.4512 15.08833265 67955,6917.901,95.438,540.299,539.233,0.0
51757.0,STARLINK-3459,PAYLOAD,2023-05-05 21:13:45,15.08840814,6.21e-05,53.2172,292.5076,68.2657,291.8401,7.0231e-05,8.3e-06,0.0,0 STARLINK-3459,1 51757U 22016AV  23125.88455959  .00000830  00000-0  70231-4 0  9990,2 51757  53.2172 292.5076 0000621  68.2657 291.8401 15.08840814 66883,6917.878,95.438,540.173,539.313,0.0
51757.0,STARLINK-3459,PAYLOAD,2023-05-06 13:07:37,15.08841966,5.9e-05,53.2166,289.5334,81.1286,278.9773,9.8287e-05,1.277e-05,0.0,0 STARLINK-3459,1 51757U 22016AV  23126.54696128  .00001277  00000-0  98287-4 0  9996,2 51757  53.2166 289.5334 0000590  81.1286 278.9773 15.08841966 66984,6917.874,95.437,540.148,539.331,0.0
51757.0,STARLINK-3459,PAYLOAD,2023-05-07 03:26:05,15.08841405,4.66e-05,53.2163,286.8577,72.8723,287.232,3.6321e-05,2.91e-06,0.0,0 STARLINK-3459,1 51757U 22016AV  23127.14311894  .00000291  00000-0  36321-4 0  9993,2 51757  53.2163 286.8577 0000466  72.8723 287.2320 15.08841405 68188,6917.876,95.437,540.063,539.419,0.0
51757.0,STARLINK-3459,PAYLOAD,2023-05-07 17:44:34,15.08831914,6.3e-05,53.2165,284.1816,94.0021,266.1043,1.1642e-05,-1.02e-06,0.0,0 STARLINK-3459,1 51757U 22016AV  23127.73929129 -.00000102  00000-0  11642-4 0  9995,2 51757  53.2165 284.1816 0000630  94.0021 266.1043 15.08831914 68279,6917.905,95.438,540.206,539.334,0.0
51757.0,STARLINK-3459,PAYLOAD,2023-05-08 03:16:53,15.08841013,5.62e-05,53.2161,282.3977,93.9342,266.1715,4.4714e-05,4.24e-06,0.0,0 STARLINK-3459,1 51757U 22016AV  23128.13672517  .00000424  00000-0  44714-4 0  9998,2 51757  53.2161 282.3977 0000562  93.9342 266.1715 15.08841013 68335,6917.877,95.437,540.131,539.354,0.0
51757.0,STARLINK-3459,PAYLOAD,2023-05-08 19:10:43,15.08851932,6.78e-05,53.2169,279.4236,81.9237,278.1833,0.00014066,1.952e-05,0.0,0 STARLINK-3459,1 51757U 22016AV  23128.79911768  .00001952  00000-0  14066-3 0  9997,2 51757  53.2169 279.4236 0000678  81.9237 278.1833 15.08851932 67329,6917.844,95.437,540.178,539.24,0.0
51757.0,STARLINK-3459,PAYLOAD,2023-05-09 14:15:21,15.08840546,6.89e-05,53.217,275.8563,98.7483,261.3587,0.00017012,2.421e-05,0.0,0 STARLINK-3459,1 51757U 22016AV  23129.59400460  .00002421  00000-0  17012-3 0  9994,2 51757  53.2170 275.8563 0000689  98.7483 261.3587 15.08840546 67447,6917.879,95.438,540.22,539.267,0.0
